[{"OBJECT_NAME":"ONEWEB-0572","OBJECT_ID":"2023-004M","EPOCH":"2025-08-01T12:35:00.110976","MEAN_MOTION":13.17647878,"ECCENTRICITY":0.0001563,"INCLINATION":87.904,"RA_OF_ASC_NODE":69.4876,"ARG_OF_PERICENTER":81.8848,"MEAN_ANOMALY":278.2461,"EPHEMERIS_TYPE":0,"CLASSIFICATION_TYPE":"U","NORAD_CAT_ID":55151,"ELEMENT_SET_NO":999,"REV_AT_EPOCH":12538,"BSTAR":-7.7026e-5,"MEAN_MOTION_DOT":-1.7e-7,"MEAN_MOTION_DDOT":0},{"OBJECT_NAME":"ONEWEB-0573","OBJECT_ID":"2023-004N","EPOCH":"2025-08-01T12:32:25.217376","MEAN_MOTION":13.186873,"ECCENTRICITY":0.000102,"INCLINATION":87.911,"RA_OF_ASC_NODE":39.0102,"ARG_OF_PERICENTER":69.8216,"MEAN_ANOMALY":290.3026,"EPHEMERIS_TYPE":0,"CLASSIFICATION_TYPE":"U","NORAD_CAT_ID":55152,"ELEMENT_SET_NO":999,"REV_AT_EPOCH":12756,"BSTAR":-2.5956e-5,"MEAN_MOTION_DOT":3.0e-8,"MEAN_MOTION_DDOT":0},{"OBJECT_NAME":"ONEWEB-0588","OBJECT_ID":"2023-004P","EPOCH":"2025-08-01T12:22:54.999840","MEAN_MOTION":13.18686377,"ECCENTRICITY":0.0001307,"INCLINATION":87.9115,"RA_OF_ASC_NODE":38.9958,"ARG_OF_PERICENTER":91.7378,"MEAN_ANOMALY":268.3904,"EPHEMERIS_TYPE":0,"CLASSIFICATION_TYPE":"U","NORAD_CAT_ID":55153,"ELEMENT_SET_NO":999,"REV_AT_EPOCH":12756,"BSTAR":-2.3162e-5,"MEAN_MOTION_DOT":4.0e-8,"MEAN_MOTION_DDOT":0},{"OBJECT_NAME":"ONEWEB-0598","OBJECT_ID":"2023-004Q","EPOCH":"2025-08-01T04:07:06.777408","MEAN_MOTION":13.11417033,"ECCENTRICITY":0.0001761,"INCLINATION":87.8803,"RA_OF_ASC_NODE":84.8669,"ARG_OF_PERICENTER":59.0475,"MEAN_ANOMALY":301.0826,"EPHEMERIS_TYPE":0,"CLASSIFICATION_TYPE":"U","NORAD_CAT_ID":55154,"ELEMENT_SET_NO":999,"REV_AT_EPOCH":12395,"BSTAR":0.0016425,"MEAN_MOTION_DOT":5.95e-6,"MEAN_MOTION_DDOT":0},{"OBJECT_NAME":"ONEWEB-0599","OBJECT_ID":"2023-004R","EPOCH":"2025-08-01T02:32:23.346528","MEAN_MOTION":13.17649171,"ECCENTRICITY":0.000186,"INCLINATION":87.9039,"RA_OF_ASC_NODE":69.5756,"ARG_OF_PERICENTER":78.0616,"MEAN_ANOMALY":282.0724,"EPHEMERIS_TYPE":0,"CLASSIFICATION_TYPE":"U","NORAD_CAT_ID":55155,"ELEMENT_SET_NO":999,"REV_AT_EPOCH":12533,"BSTAR":0.00017818,"MEAN_MOTION_DOT":8.2e-7,"MEAN_MOTION_DDOT":0},{"OBJECT_NAME":"ONEWEB-0614","OBJECT_ID":"2023-004S","EPOCH":"2025-08-01T03:59:47.030784","MEAN_MOTION":13.11417256,"ECCENTRICITY":0.0001577,"INCLINATION":87.8806,"RA_OF_ASC_NODE":84.8775,"ARG_OF_PERICENTER":89.7694,"MEAN_ANOMALY":270.3615,"EPHEMERIS_TYPE":0,"CLASSIFICATION_TYPE":"U","NORAD_CAT_ID":55156,"ELEMENT_SET_NO":999,"REV_AT_EPOCH":12389,"BSTAR":0.001506,"MEAN_MOTION_DOT":5.46e-6,"MEAN_MOTION_DDOT":0},{"OBJECT_NAME":"ONEWEB-0616","OBJECT_ID":"2023-004T","EPOCH":"2025-08-01T14:29:12.964992","MEAN_MOTION":13.17650378,"ECCENTRICITY":0.0002781,"INCLINATION":87.9038,"RA_OF_ASC_NODE":69.4669,"ARG_OF_PERICENTER":77.2034,"MEAN_ANOMALY":282.9408,"EPHEMERIS_TYPE":0,"CLASSIFICATION_TYPE":"U","NORAD_CAT_ID":55157,"ELEMENT_SET_NO":999,"REV_AT_EPOCH":12561,"BSTAR":5.5476e-5,"MEAN_MOTION_DOT":3.4e-7,"MEAN_MOTION_DDOT":0},{"OBJECT_NAME":"ONEWEB-0617","OBJECT_ID":"2023-004U","EPOCH":"2025-08-01T14:41:53.037888","MEAN_MOTION":13.11418386,"ECCENTRICITY":0.00014,"INCLINATION":87.8801,"RA_OF_ASC_NODE":84.7674,"ARG_OF_PERICENTER":83.6786,"MEAN_ANOMALY":276.4501,"EPHEMERIS_TYPE":0,"CLASSIFICATION_TYPE":"U","NORAD_CAT_ID":55158,"ELEMENT_SET_NO":999,"REV_AT_EPOCH":12397,"BSTAR":-0.0001049,"MEAN_MOTION_DOT":-2.4e-7,"MEAN_MOTION_DDOT":0},{"OBJECT_NAME":"ONEWEB-0618","OBJECT_ID":"2023-004V","EPOCH":"2025-08-01T07:30:11.276928","MEAN_MOTION":14.67568059,"ECCENTRICITY":0.0015617,"INCLINATION":86.911,"RA_OF_ASC_NODE":305.8266,"ARG_OF_PERICENTER":36.8672,"MEAN_ANOMALY":323.3613,"EPHEMERIS_TYPE":0,"CLASSIFICATION_TYPE":"U","NORAD_CAT_ID":55159,"ELEMENT_SET_NO":999,"REV_AT_EPOCH":13418,"BSTAR":0.00017442,"MEAN_MOTION_DOT":1.014e-5,"MEAN_MOTION_DDOT":0},{"OBJECT_NAME":"ONEWEB-0619","OBJECT_ID":"2023-004W","EPOCH":"2025-08-01T02:29:56.856192","MEAN_MOTION":13.17648302,"ECCENTRICITY":0.0002048,"INCLINATION":87.9032,"RA_OF_ASC_NODE":69.5431,"ARG_OF_PERICENTER":97.1676,"MEAN_ANOMALY":262.9689,"EPHEMERIS_TYPE":0,"CLASSIFICATION_TYPE":"U","NORAD_CAT_ID":55160,"ELEMENT_SET_NO":999,"REV_AT_EPOCH":12544,"BSTAR":6.595e-5,"MEAN_MOTION_DOT":3.9e-7,"MEAN_MOTION_DDOT":0},{"OBJECT_NAME":"ONEWEB-0620","OBJECT_ID":"2023-004X","EPOCH":"2025-08-01T14:34:33.540096","MEAN_MOTION":13.11419531,"ECCENTRICITY":0.0001578,"INCLINATION":87.8803,"RA_OF_ASC_NODE":84.7896,"ARG_OF_PERICENTER":73.9658,"MEAN_ANOMALY":286.1644,"EPHEMERIS_TYPE":0,"CLASSIFICATION_TYPE":"U","NORAD_CAT_ID":55161,"ELEMENT_SET_NO":999,"REV_AT_EPOCH":12394,"BSTAR":-0.00076252,"MEAN_MOTION_DOT":-2.58e-6,"MEAN_MOTION_DDOT":0},{"OBJECT_NAME":"ONEWEB-0621","OBJECT_ID":"2023-004Y","EPOCH":"2025-08-01T15:13:38.713440","MEAN_MOTION":13.11415616,"ECCENTRICITY":0.0001769,"INCLINATION":87.8805,"RA_OF_ASC_NODE":84.7406,"ARG_OF_PERICENTER":88.3083,"MEAN_ANOMALY":271.8248,"EPHEMERIS_TYPE":0,"CLASSIFICATION_TYPE":"U","NORAD_CAT_ID":55162,"ELEMENT_SET_NO":999,"REV_AT_EPOCH":12392,"BSTAR":0.0013976,"MEAN_MOTION_DOT":5.08e-6,"MEAN_MOTION_DDOT":0},{"OBJECT_NAME":"ONEWEB-0622","OBJECT_ID":"2023-004Z","EPOCH":"2025-08-01T04:21:45.588096","MEAN_MOTION":13.11415722,"ECCENTRICITY":0.0001093,"INCLINATION":87.8801,"RA_OF_ASC_NODE":84.8543,"ARG_OF_PERICENTER":98.9186,"MEAN_ANOMALY":261.2065,"EPHEMERIS_TYPE":0,"CLASSIFICATION_TYPE":"U","NORAD_CAT_ID":55163,"ELEMENT_SET_NO":999,"REV_AT_EPOCH":12385,"BSTAR":0.0010532,"MEAN_MOTION_DOT":3.86e-6,"MEAN_MOTION_DDOT":0},{"OBJECT_NAME":"ONEWEB-0623","OBJECT_ID":"2023-004AA","EPOCH":"2025-08-01T02:22:39.733536","MEAN_MOTION":13.17649951,"ECCENTRICITY":0.0001526,"INCLINATION":87.9033,"RA_OF_ASC_NODE":69.6008,"ARG_OF_PERICENTER":109.4333,"MEAN_ANOMALY":250.6963,"EPHEMERIS_TYPE":0,"CLASSIFICATION_TYPE":"U","NORAD_CAT_ID":55164,"ELEMENT_SET_NO":999,"REV_AT_EPOCH":12543,"BSTAR":0.00013388,"MEAN_MOTION_DOT":6.5e-7,"MEAN_MOTION_DDOT":0},{"OBJECT_NAME":"ONEWEB-0624","OBJECT_ID":"2023-004AB","EPOCH":"2025-08-01T21:04:41.251008","MEAN_MOTION":13.12941633,"ECCENTRICITY":0.0001765,"INCLINATION":87.8854,"RA_OF_ASC_NODE":54.1302,"ARG_OF_PERICENTER":89.2392,"MEAN_ANOMALY":270.8939,"EPHEMERIS_TYPE":0,"CLASSIFICATION_TYPE":"U","NORAD_CAT_ID":55165,"ELEMENT_SET_NO":999,"REV_AT_EPOCH":12617,"BSTAR":-0.00029362,"MEAN_MOTION_DOT":-9.4e-7,"MEAN_MOTION_DDOT":0},{"OBJECT_NAME":"ONEWEB-0625","OBJECT_ID":"2023-004AC","EPOCH":"2025-08-01T13:04:09.920928","MEAN_MOTION":13.17648301,"ECCENTRICITY":0.0001927,"INCLINATION":87.9033,"RA_OF_ASC_NODE":69.5091,"ARG_OF_PERICENTER":81.5097,"MEAN_ANOMALY":278.6253,"EPHEMERIS_TYPE":0,"CLASSIFICATION_TYPE":"U","NORAD_CAT_ID":55166,"ELEMENT_SET_NO":999,"REV_AT_EPOCH":12548,"BSTAR":-5.4634e-5,"MEAN_MOTION_DOT":-8.0e-8,"MEAN_MOTION_DDOT":0},{"OBJECT_NAME":"ONEWEB-0626","OBJECT_ID":"2023-004AD","EPOCH":"2025-08-01T14:38:55.708800","MEAN_MOTION":13.17648039,"ECCENTRICITY":0.0001633,"INCLINATION":87.9034,"RA_OF_ASC_NODE":69.4942,"ARG_OF_PERICENTER":65.7362,"MEAN_ANOMALY":294.394,"EPHEMERIS_TYPE":0,"CLASSIFICATION_TYPE":"U","NORAD_CAT_ID":55167,"ELEMENT_SET_NO":999,"REV_AT_EPOCH":12549,"BSTAR":-6.2175e-5,"MEAN_MOTION_DOT":-1.1e-7,"MEAN_MOTION_DDOT":0}]
