ONEWEB-0572             
1 55151U 23004M   25213.52430684 -.00000017  00000+0 -77026-4 0  9996
2 55151  87.9040  69.4876 0001563  81.8848 278.2461 13.17647878125380
ONEWEB-0573             
1 55152U 23004N   25213.52251409  .00000003  00000+0 -25956-4 0  9992
2 55152  87.9110  39.0102 0001020  69.8216 290.3026 13.18687300127566
ONEWEB-0588             
1 55153U 23004P   25213.51591435  .00000004  00000+0 -23162-4 0  9996
2 55153  87.9115  38.9958 0001307  91.7378 268.3904 13.18686377127563
ONEWEB-0598             
1 55154U 23004Q   25213.17160622  .00000595  00000+0  16425-2 0  9995
2 55154  87.8803  84.8669 0001761  59.0475 301.0826 13.11417033123956
ONEWEB-0599             
1 55155U 23004R   25213.10582577  .00000082  00000+0  17818-3 0  9995
2 55155  87.9039  69.5756 0001860  78.0616 282.0724 13.17649171125339
ONEWEB-0614             
1 55156U 23004S   25213.16651656  .00000546  00000+0  15060-2 0  9998
2 55156  87.8806  84.8775 0001577  89.7694 270.3615 13.11417256123891
ONEWEB-0616             
1 55157U 23004T   25213.60362228  .00000034  00000+0  55476-4 0  9991
2 55157  87.9038  69.4669 0002781  77.2034 282.9408 13.17650378125610
ONEWEB-0617             
1 55158U 23004U   25213.61241942 -.00000024  00000+0 -10490-3 0  9999
2 55158  87.8801  84.7674 0001400  83.6786 276.4501 13.11418386123970
ONEWEB-0618             
1 55159U 23004V   25213.31263052  .00001014  00000+0  17442-3 0  9995
2 55159  86.9110 305.8266 0015617  36.8672 323.3613 14.67568059134183
ONEWEB-0619             
1 55160U 23004W   25213.10413028  .00000039  00000+0  65950-4 0  9998
2 55160  87.9032  69.5431 0002048  97.1676 262.9689 13.17648302125449
ONEWEB-0620             
1 55161U 23004X   25213.60733264 -.00000258  00000+0 -76252-3 0  9992
2 55161  87.8803  84.7896 0001578  73.9658 286.1644 13.11419531123944
ONEWEB-0621             
1 55162U 23004Y   25213.63447585  .00000508  00000+0  13976-2 0  9993
2 55162  87.8805  84.7406 0001769  88.3083 271.8248 13.11415616123927
ONEWEB-0622             
1 55163U 23004Z   25213.18177764  .00000386  00000+0  10532-2 0  9992
2 55163  87.8801  84.8543 0001093  98.9186 261.2065 13.11415722123858
ONEWEB-0623             
1 55164U 23004AA  25213.09907099  .00000065  00000+0  13388-3 0  9992
2 55164  87.9033  69.6008 0001526 109.4333 250.6963 13.17649951125431
ONEWEB-0624             
1 55165U 23004AB  25213.87825522 -.00000094  00000+0 -29362-3 0  9992
2 55165  87.8854  54.1302 0001765  89.2392 270.8939 13.12941633126179
ONEWEB-0625             
1 55166U 23004AC  25213.54455927 -.00000008  00000+0 -54634-4 0  9991
2 55166  87.9033  69.5091 0001927  81.5097 278.6253 13.17648301125481
ONEWEB-0626             
1 55167U 23004AD  25213.61036700 -.00000011  00000+0 -62175-4 0  9997
2 55167  87.9034  69.4942 0001633  65.7362 294.3940 13.17648039125497
